NORAD_CAT_ID,OBJECT_NAME,OBJECT_TYPE,EPOCH,MEAN_MOTION,ECCENTRICITY,INCLINATION,RA_OF_ASC_NODE,ARG_OF_PERICENTER,MEAN_ANOMALY,BSTAR,MEAN_MOTION_DOT,MEAN_MOTION_DDOT,TLE_LINE0,TLE_LINE1,TLE_LINE2,SEMIMAJOR_AXIS,PERIOD,APOGEE,PERIGEE,DECAYED
53728.0,STARLINK-4640,PAYLOAD,2023-07-28 10:30:11,15.08830301,0.0001165,53.2152,222.3646,78.0381,282.0741,6.9268e-05,8.14e-06,0.0,0 STARLINK-4640,1 53728U 22107AE  23209.43763423  .00000814  00000-0  69268-4 0  9993,2 53728  53.2152 222.3646 0001165  78.0381 282.0741 15.08830301 49747,6917.91,95.438,540.581,538.969,0.0
53728.0,STARLINK-4640,PAYLOAD,2023-07-29 10:20:58,15.08839876,0.0001266,53.2156,217.904,78.3146,281.7989,5.4373e-05,5.78e-06,0.0,0 STARLINK-4640,1 53728U 22107AE  23210.43122841  .00000578  00000-0  54373-4 0  9996,2 53728  53.2156 217.9040 0001266  78.3146 281.7989 15.08839876 49895,6917.881,95.438,540.622,538.87,0.0
53728.0,STARLINK-4640,PAYLOAD,2023-07-31 00:30:13,15.08839717,0.0001203,53.2156,210.7663,89.048,271.065,5.3993e-05,5.72e-06,0.0,0 STARLINK-4640,1 53728U 22107AE  23212.02098945  .00000572  00000-0  53993-4 0  9991,2 53728  53.2156 210.7663 0001203  89.0480 271.0650 15.08839717 50138,6917.881,95.438,540.578,538.914,0.0
53728.0,STARLINK-4640,PAYLOAD,2023-08-01 16:14:52,15.08837532,0.0001185,53.2157,203.3332,87.6616,272.4512,1.1044e-05,-1.12e-06,0.0,0 STARLINK-4640,1 53728U 22107AE  23213.67699257 -.00000112  00000-0  11044-4 0  9998,2 53728  53.2157 203.3332 0001185  87.6616 272.4512 15.08837532 50386,6917.888,95.438,540.573,538.933,0.0
53728.0,STARLINK-4640,PAYLOAD,2023-08-03 03:13:21,15.08839887,0.0001172,53.2157,196.7912,90.6495,269.4631,8.1981e-05,1.017e-05,0.0,0 STARLINK-4640,1 53728U 22107AE  23215.13427113  .00001017  00000-0  81981-4 0  9992,2 53728  53.2157 196.7912 0001172  90.6495 269.4631 15.08839887 50608,6917.881,95.438,540.557,538.935,0.0
53728.0,STARLINK-4640,PAYLOAD,2023-08-04 03:04:09,15.08830024,0.0001225,53.2159,192.3291,86.2645,273.8487,3.0719e-06,-2.39e-06,0.0,0 STARLINK-4640,1 53728U 22107AE  23216.12788278 -.00000239  00000-0  30719-5 0  9994,2 53728  53.2159 192.3291 0001225  86.2645 273.8487 15.08830024 50757,6917.911,95.438,540.623,538.928,0.0
53728.0,STARLINK-4640,PAYLOAD,2023-08-04 15:47:13,15.08838713,0.0001331,53.2169,189.9505,85.5887,274.5257,5.3157e-05,5.58e-06,0.0,0 STARLINK-4640,1 53728U 22107AE  23216.65779736  .00000558  00000-0  53157-4 0  9994,2 53728  53.2169 189.9505 0001331  85.5887 274.5257 15.08838713 50831,6917.884,95.438,540.67,538.829,0.0
53728.0,STARLINK-4640,PAYLOAD,2023-08-05 02:54:54,15.0884813,0.000132,53.2168,187.8686,85.4413,274.673,0.00010436,1.374e-05,0.0,0 STARLINK-4640,1 53728U 22107AE  23217.12146912  .00001374  00000-0  10436-3 0  9990,2 53728  53.2168 187.8686 0001320  85.4413 274.6730 15.08848130 50908,6917.856,95.437,540.634,538.807,0.0
53728.0,STARLINK-4640,PAYLOAD,2023-08-06 04:21:05,15.08838404,0.0001247,53.2156,183.11,88.8119,271.3016,0.00010622,1.403e-05,0.0,0 STARLINK-4640,1 53728U 22107AE  23218.18131319  .00001403  00000-0  10622-3 0  9992,2 53728  53.2156 183.1100 0001247  88.8119 271.3016 15.08838404 51065,6917.885,95.438,540.613,538.888,0.0
53728.0,STARLINK-4640,PAYLOAD,2023-08-07 04:11:53,15.08832648,0.0001258,53.2163,178.6526,84.3255,275.7881,-9.8653e-05,-1.857e-05,0.0,0 STARLINK-4640,1 53728U 22107AE  23219.17492661 -.00001857  00000-0 -98653-4 0  9998,2 53728  53.2163 178.6526 0001258  84.3255 275.7881 15.08832648 51217,6917.903,95.438,540.638,538.898,0.0
53728.0,STARLINK-4640,PAYLOAD,2023-08-08 00:51:53,15.08842986,0.0001125,53.2164,174.7864,95.2051,264.907,4.534e-05,4.34e-06,0.0,0 STARLINK-4640,1 53728U 22107AE  23220.03603696  .00000434  00000-0  45340-4 0  9990,2 53728  53.2164 174.7864 0001125  95.2051 264.9070 15.08842986 51348,6917.871,95.437,540.515,538.958,0.0
53728.0,STARLINK-4640,PAYLOAD,2023-08-08 05:38:02,15.08852772,0.0001145,53.2162,173.8941,88.5958,271.5165,0.00012955,1.775e-05,0.0,0 STARLINK-4640,1 53728U 22107AE  23220.23474908  .00001775  00000-0  12955-3 0  9998,2 53728  53.2162 173.8941 0001145  88.5958 271.5165 15.08852772 51371,6917.841,95.437,540.498,538.914,0.0
53728.0,STARLINK-4640,PAYLOAD,2023-08-08 13:34:58,15.08845117,0.0001198,53.2162,172.4075,89.4446,270.6683,5.595e-05,6.03e-06,0.0,0 STARLINK-4640,1 53728U 22107AE  23220.56595453  .00000603  00000-0  55950-4 0  9995,2 53728  53.2162 172.4075 0001198  89.4446 270.6683 15.08845117 51420,6917.865,95.437,540.559,538.901,0.0
53728.0,STARLINK-4640,PAYLOAD,2023-08-09 05:28:50,15.08836974,0.0001293,53.2168,169.4341,86.4864,273.6276,0.00010651,1.407e-05,0.0,0 STARLINK-4640,1 53728U 22107AE  23221.22836226  .00001407  00000-0  10651-3 0  9996,2 53728  53.2168 169.4341 0001293  86.4864 273.6276 15.08836974 51528,6917.89,95.438,540.649,538.86,0.0
53728.0,STARLINK-4640,PAYLOAD,2023-08-10 13:16:33,15.08825325,0.0001449,53.217,163.4871,93.8931,266.2227,0.00016053,2.267e-05,0.0,0 STARLINK-4640,1 53728U 22107AE  23222.55317059  .00002267  00000-0  16053-3 0  9998,2 53728  53.2170 163.4871 0001449  93.8931 266.2227 15.08825325 51727,6917.925,95.438,540.793,538.788,0.0
53728.0,STARLINK-4640,PAYLOAD,2023-08-10 22:48:51,15.08841832,0.0001362,53.2139,161.7013,87.8297,272.2851,6.3147e-05,7.17e-06,0.0,0 STARLINK-4640,1 53728U 22107AE  23222.95060108  .00000717  00000-0  63147-4 0  9997,2 53728  53.2139 161.7013 0001362  87.8297 272.2851 15.08841832 51780,6917.875,95.437,540.682,538.798,0.0
53728.0,STARLINK-4640,PAYLOAD,2023-08-11 13:07:21,15.08822441,0.0001569,53.2117,159.0246,88.0543,272.0628,0.00017691,2.527e-05,0.0,0 STARLINK-4640,1 53728U 22107AE  23223.54677217  .00002527  00000-0  17691-3 0  9991,2 53728  53.2117 159.0246 0001569  88.0543 272.0628 15.08822441 51875,6917.934,95.439,540.884,538.714,0.0
53728.0,STARLINK-4640,PAYLOAD,2023-08-12 01:50:25,15.08843187,0.0001443,53.2179,156.6497,92.18,267.9357,4.9202e-05,4.95e-06,0.0,0 STARLINK-4640,1 53728U 22107AE  23224.07668428  .00000495  00000-0  49202-4 0  9990,2 53728  53.2179 156.6497 0001443  92.1800 267.9357 15.08843187 51958,6917.871,95.437,540.734,538.737,0.0
53728.0,STARLINK-4640,PAYLOAD,2023-08-13 04:51:58,15.08846149,0.0001175,53.2164,151.5921,99.8148,260.2977,3.641e-05,2.92e-06,0.0,0 STARLINK-4640,1 53728U 22107AE  23225.20275911  .00000292  00000-0  36410-4 0  9999,2 53728  53.2164 151.5921 0001175  99.8148 260.2977 15.08846149 52124,6917.862,95.437,540.539,538.914,0.0
53728.0,STARLINK-4640,PAYLOAD,2023-08-14 01:31:59,15.08832007,9.8e-05,53.2172,147.7262,92.0914,268.019,0.00013726,1.897e-05,0.0,0 STARLINK-4640,1 53728U 22107AE  23226.06388627  .00001897  00000-0  13726-3 0  9999,2 53728  53.2172 147.7262 0000980  92.0914 268.0190 15.08832007 52252,6917.905,95.438,540.448,539.092,0.0
53728.0,STARLINK-4640,PAYLOAD,2023-08-14 04:42:45,15.0884274,0.0001142,53.2171,147.1315,93.6445,266.4677,3.2278e-06,-2.36e-06,0.0,0 STARLINK-4640,1 53728U 22107AE  23226.19636321 -.00000236  00000-0  32278-5 0  9992,2 53728  53.2171 147.1315 0001142  93.6445 266.4677 15.08842740 52270,6917.872,95.437,540.527,538.947,0.0
53728.0,STARLINK-4640,PAYLOAD,2023-08-15 18:52:01,15.08836293,0.0001249,53.2164,139.9957,89.0295,271.084,2.9122e-06,-2.42e-06,0.0,0 STARLINK-4640,1 53728U 22107AE  23227.78613050 -.00000242  00000-0  29122-5 0  9993,2 53728  53.2164 139.9957 0001249  89.0295 271.0840 15.08836293 52510,6917.892,95.438,540.621,538.893,0.0
53728.0,STARLINK-4640,PAYLOAD,2023-08-16 01:13:33,15.08844564,0.0001149,53.2161,138.8063,89.7378,270.3745,8.4918e-05,1.064e-05,0.0,0 STARLINK-4640,1 53728U 22107AE  23228.05108268  .00001064  00000-0  84918-4 0  9999,2 53728  53.2161 138.8063 0001149  89.7378 270.3745 15.08844564 52551,6917.866,95.437,540.526,538.937,0.0
53728.0,STARLINK-4640,PAYLOAD,2023-08-17 02:39:43,15.08845279,0.0001468,53.2173,134.049,92.8443,267.2717,4.258e-05,3.9e-06,0.0,0 STARLINK-4640,1 53728U 22107AE  23229.11092476  .00000390  00000-0  42580-4 0  9990,2 53728  53.2173 134.0490 0001468  92.8443 267.2717 15.08845279 52714,6917.864,95.437,540.745,538.714,0.0
53728.0,STARLINK-4640,PAYLOAD,2023-08-17 20:08:58,15.08838943,0.0001655,53.218,130.7794,99.1012,261.0167,-7.825e-06,-4.13e-06,0.0,0 STARLINK-4640,1 53728U 22107AE  23229.83957140 -.00000413  00000-0 -78250-5 0  9999,2 53728  53.2180 130.7794 0001655  99.1012 261.0167 15.08838943 52825,6917.884,95.438,540.894,538.604,0.0
53728.0,STARLINK-4640,PAYLOAD,2023-08-18 02:30:30,15.08845788,0.0001298,53.2169,129.5878,91.0921,269.022,4.4599e-05,4.22e-06,0.0,0 STARLINK-4640,1 53728U 22107AE  23230.10452479  .00000422  00000-0  44599-4 0  9992,2 53728  53.2169 129.5878 0001298  91.0921 269.0220 15.08845788 52861,6917.863,95.437,540.626,538.83,0.0
53728.0,STARLINK-4640,PAYLOAD,2023-08-19 02:21:11,15.0893299,0.0001266,53.2175,125.1286,108.3813,251.7317,0.00080156,0.00012524,0.0,0 STARLINK-4640,1 53728U 22107AE  23231.09804851  .00012524  00000-0  80156-3 0  9990,2 53728  53.2175 125.1286 0001266 108.3813 251.7317 15.08932990 53015,6917.596,95.432,540.337,538.585,0.0
53728.0,STARLINK-4640,PAYLOAD,2023-08-19 08:42:45,15.08898085,9.28e-05,53.217,123.9368,108.5569,251.5524,0.00046961,7.206e-05,0.0,0 STARLINK-4640,1 53728U 22107AE  23231.36302904  .00007206  00000-0  46961-3 0  9999,2 53728  53.2170 123.9368 0000928 108.5569 251.5524 15.08898085 53059,6917.703,95.434,540.21,538.926,0.0
53728.0,STARLINK-4640,PAYLOAD,2023-08-20 03:47:29,15.08822398,0.0001308,53.217,120.3692,85.1935,274.9206,-0.00010304,-1.927e-05,0.0,0 STARLINK-4640,1 53728U 22107AE  23232.15798250 -.00001927  00000-0 -10304-3 0  9998,2 53728  53.2170 120.3692 0001308  85.1935 274.9206 15.08822398 53173,6917.934,95.439,540.704,538.894,0.0
53728.0,STARLINK-4640,PAYLOAD,2023-08-21 02:02:53,15.08846509,0.000148,53.2174,116.2071,92.1455,267.9707,-0.00040951,-6.801e-05,0.0,0 STARLINK-4640,1 53728U 22107AE  23233.08534256 -.00006801  00000-0 -40951-3 0  9992,2 53728  53.2174 116.2071 0001480  92.1455 267.9707 15.08846509 53312,6917.86,95.437,540.749,538.702,0.0
